NORAD_CAT_ID,OBJECT_NAME,OBJECT_TYPE,EPOCH,MEAN_MOTION,ECCENTRICITY,INCLINATION,RA_OF_ASC_NODE,ARG_OF_PERICENTER,MEAN_ANOMALY,BSTAR,MEAN_MOTION_DOT,MEAN_MOTION_DDOT,TLE_LINE0,TLE_LINE1,TLE_LINE2,SEMIMAJOR_AXIS,PERIOD,APOGEE,PERIGEE,DECAYED
53248.0,STARLINK-4135,PAYLOAD,2023-08-11 08:52:20,15.08835952,0.0001132,53.2163,104.9786,91.5957,268.5164,0.00010605,1.4e-05,0.0,0 STARLINK-4135,1 53248U 22086G   23223.36968248  .00001400  00000-0  10605-3 0  9998,2 53248  53.2163 104.9786 0001132  91.5957 268.5164 15.08835952 58700,6917.893,95.438,540.541,538.975,0.0
53248.0,STARLINK-4135,PAYLOAD,2023-08-12 10:18:30,15.0884214,9.56e-05,53.2149,100.2189,95.5971,264.513,0.00023277,3.419e-05,0.0,0 STARLINK-4135,1 53248U 22086G   23224.42952205  .00003419  00000-0  23277-3 0  9993,2 53248  53.2149 100.2189 0000956  95.5971 264.5130 15.08842140 58866,6917.874,95.437,540.4,539.077,0.0
53248.0,STARLINK-4135,PAYLOAD,2023-08-13 18:06:13,15.08839246,8.96e-05,53.2155,94.2724,105.0602,255.0489,0.00010512,1.386e-05,0.0,0 STARLINK-4135,1 53248U 22086G   23225.75432492  .00001386  00000-0  10512-3 0  9990,2 53248  53.2155  94.2724 0000896 105.0602 255.0489 15.08839246 59069,6917.883,95.438,540.368,539.128,0.0
53248.0,STARLINK-4135,PAYLOAD,2023-08-14 21:07:47,15.08837903,0.0001032,53.2156,89.2147,104.178,255.9327,0.00011639,1.565e-05,0.0,0 STARLINK-4135,1 53248U 22086G   23226.88040843  .00001565  00000-0  11639-3 0  9990,2 53248  53.2156  89.2147 0001032 104.1780 255.9327 15.08837903 59230,6917.887,95.438,540.466,539.038,0.0
53248.0,STARLINK-4135,PAYLOAD,2023-08-16 00:09:19,15.08854599,0.0001078,53.2157,84.1594,92.3493,267.7623,0.00027653,4.118e-05,0.0,0 STARLINK-4135,1 53248U 22086G   23228.00648089  .00004118  00000-0  27653-3 0  9992,2 53248  53.2157  84.1594 0001078  92.3493 267.7623 15.08854599 59409,6917.836,95.437,540.447,538.955,0.0
53248.0,STARLINK-4135,PAYLOAD,2023-08-16 17:38:35,15.08841736,0.0001542,53.2148,80.8884,89.5826,270.5343,0.00010261,1.345e-05,0.0,0 STARLINK-4135,1 53248U 22086G   23228.73512929  .00001345  00000-0  10261-3 0  9991,2 53248  53.2148  80.8884 0001542  89.5826 270.5343 15.08841736 59510,6917.875,95.437,540.807,538.673,0.0
53248.0,STARLINK-4135,PAYLOAD,2023-08-17 20:40:08,15.08848751,0.0001171,53.2156,75.8329,88.255,271.8576,0.00020411,2.963e-05,0.0,0 STARLINK-4135,1 53248U 22086G   23229.86120403  .00002963  00000-0  20411-3 0  9993,2 53248  53.2156  75.8329 0001171  88.2550 271.8576 15.08848751 59689,6917.854,95.437,540.529,538.909,0.0
53248.0,STARLINK-4135,PAYLOAD,2023-08-18 09:23:13,15.08839955,0.0001542,53.214,73.4547,92.333,267.7838,0.00011288,1.509e-05,0.0,0 STARLINK-4135,1 53248U 22086G   23230.39112802  .00001509  00000-0  11288-3 0  9994,2 53248  53.2140  73.4547 0001542  92.3330 267.7838 15.08839955 59762,6917.881,95.438,540.812,538.679,0.0
53248.0,STARLINK-4135,PAYLOAD,2023-08-19 09:14:00,15.08836511,0.0001099,53.2155,68.995,82.8609,277.2508,7.4347e-05,8.96e-06,0.0,0 STARLINK-4135,1 53248U 22086G   23231.38473249  .00000896  00000-0  74347-4 0  9993,2 53248  53.2155  68.9950 0001099  82.8609 277.2508 15.08836511 59917,6917.891,95.438,540.516,538.996,0.0
53248.0,STARLINK-4135,PAYLOAD,2023-08-20 18:37:06,15.08843944,0.0001026,53.2157,62.7502,74.9109,285.1996,0.0002258,3.308e-05,0.0,0 STARLINK-4135,1 53248U 22086G   23232.77577201  .00003308  00000-0  22580-3 0  9992,2 53248  53.2157  62.7502 0001026  74.9109 285.1996 15.08843944 60123,6917.868,95.437,540.443,539.024,0.0
53248.0,STARLINK-4135,PAYLOAD,2023-08-21 20:03:17,15.08840521,0.0001218,53.2155,57.9923,72.9431,287.1695,7.5952e-05,9.21e-06,0.0,0 STARLINK-4135,1 53248U 22086G   23233.83561414  .00000921  00000-0  75952-4 0  9999,2 53248  53.2155  57.9923 0001218  72.9431 287.1695 15.08840521 60286,6917.879,95.438,540.586,538.901,0.0
53248.0,STARLINK-4135,PAYLOAD,2023-08-22 21:29:27,15.08840672,0.000131,53.2153,53.2343,72.894,287.2195,4.2269e-05,3.85e-06,0.0,0 STARLINK-4135,1 53248U 22086G   23234.89545620  .00000385  00000-0  42269-4 0  9996,2 53248  53.2153  53.2343 0001310  72.8940 287.2195 15.08840672 60447,6917.878,95.438,540.65,538.837,0.0
53248.0,STARLINK-4135,PAYLOAD,2023-08-24 14:49:29,15.08840323,0.0001258,53.2164,45.5008,88.3467,271.7669,4.4676e-05,4.23e-06,0.0,0 STARLINK-4135,1 53248U 22086G   23236.61769782  .00000423  00000-0  44676-4 0  9992,2 53248  53.2164  45.5008 0001258  88.3467 271.7669 15.08840323 60704,6917.879,95.438,540.615,538.874,0.0
53248.0,STARLINK-4135,PAYLOAD,2023-08-25 17:51:02,15.08845279,0.0001185,53.2174,40.4453,92.4275,267.6853,4.1603e-05,3.74e-06,0.0,0 STARLINK-4135,1 53248U 22086G   23237.74377436  .00000374  00000-0  41603-4 0  9990,2 53248  53.2174  40.4453 0001185  92.4275 267.6853 15.08845279 60877,6917.864,95.437,540.549,538.909,0.0
53248.0,STARLINK-4135,PAYLOAD,2023-08-26 11:20:17,15.08836253,0.0001244,53.2178,37.1737,86.0009,274.1126,5.9815e-05,6.64e-06,0.0,0 STARLINK-4135,1 53248U 22086G   23238.47242055  .00000664  00000-0  59815-4 0  9995,2 53248  53.2178  37.1737 0001244  86.0009 274.1126 15.08836253 60989,6917.892,95.438,540.617,538.896,0.0
53248.0,STARLINK-4135,PAYLOAD,2023-08-26 12:55:40,15.08835916,0.0001243,53.2179,36.876,92.2293,267.8841,5.4335e-05,5.77e-06,0.0,0 STARLINK-4135,1 53248U 22086G   23238.53866068  .00000577  00000-0  54335-4 0  9993,2 53248  53.2179  36.8760 0001243  92.2293 267.8841 15.08835916 61490,6917.893,95.438,540.618,538.898,0.0
53248.0,STARLINK-4135,PAYLOAD,2023-08-26 16:06:26,15.08838758,0.0001217,53.2177,36.2817,92.4192,267.6939,7.6184e-05,9.25e-06,0.0,0 STARLINK-4135,1 53248U 22086G   23238.67113853  .00000925  00000-0  76184-4 0  9998,2 53248  53.2177  36.2817 0001217  92.4192 267.6939 15.08838758 61512,6917.884,95.438,540.591,538.907,0.0
53248.0,STARLINK-4135,PAYLOAD,2023-08-27 09:35:41,15.0882906,0.0001249,53.2177,33.0113,92.9366,267.1769,0.00017515,2.5e-05,0.0,0 STARLINK-4135,1 53248U 22086G   23239.39978148  .00002500  00000-0  17515-3 0  9997,2 53248  53.2177  33.0113 0001249  92.9366 267.1769 15.08829060 61623,6917.914,95.438,540.643,538.915,0.0
53248.0,STARLINK-4135,PAYLOAD,2023-08-27 17:32:36,15.088412,0.0001197,53.2179,31.5247,83.4229,276.6899,6.4381e-05,7.37e-06,0.0,0 STARLINK-4135,1 53248U 22086G   23239.73097913  .00000737  00000-0  64381-4 0  9991,2 53248  53.2179  31.5247 0001197  83.4229 276.6899 15.08841200 61170,6917.877,95.437,540.57,538.914,0.0
53248.0,STARLINK-4135,PAYLOAD,2023-08-28 03:04:55,15.0883551,0.0001165,53.218,29.741,80.4411,279.6713,3.9995e-05,3.49e-06,0.0,0 STARLINK-4135,1 53248U 22086G   23240.12842407  .00000349  00000-0  39995-4 0  9994,2 53248  53.2180  29.7410 0001165  80.4411 279.6713 15.08835510 61230,6917.894,95.438,540.565,538.953,0.0
53248.0,STARLINK-4135,PAYLOAD,2023-08-28 18:58:46,15.08842302,0.0001225,53.218,26.7675,79.8599,280.2532,9.3968e-05,1.208e-05,0.0,0 STARLINK-4135,1 53248U 22086G   23240.79082034  .00001208  00000-0  93968-4 0  9994,2 53248  53.2180  26.7675 0001225  79.8599 280.2532 15.08842302 61836,6917.873,95.437,540.586,538.891,0.0
53248.0,STARLINK-4135,PAYLOAD,2023-08-29 17:14:10,15.08845305,0.0001101,53.2172,22.6061,87.4349,272.6769,0.00015472,2.176e-05,0.0,0 STARLINK-4135,1 53248U 22086G   23241.71817724  .00002176  00000-0  15472-3 0  9997,2 53248  53.2172  22.6061 0001101  87.4349 272.6769 15.08845305 61970,6917.864,95.437,540.491,538.968,0.0
53248.0,STARLINK-4135,PAYLOAD,2023-08-30 15:29:34,15.08843657,0.0001221,53.2179,18.4417,87.6828,272.4304,0.00012682,1.731e-05,0.0,0 STARLINK-4135,1 53248U 22086G   23242.64553847  .00001731  00000-0  12682-3 0  9999,2 53248  53.2179  18.4417 0001221  87.6828 272.4304 15.08843657 61614,6917.869,95.437,540.579,538.89,0.0
53248.0,STARLINK-4135,PAYLOAD,2023-08-31 02:37:18,15.08816997,0.0001132,53.2191,16.3592,90.709,269.4032,-0.00015357,-2.729e-05,0.0,0 STARLINK-4135,1 53248U 22086G   23243.10924705 -.00002729  00000-0 -15357-3 0  9998,2 53248  53.2191  16.3592 0001132  90.7090 269.4032 15.08816997 61684,6917.951,95.439,540.599,539.033,0.0
53248.0,STARLINK-4135,PAYLOAD,2023-08-31 12:09:35,15.08839758,0.0001135,53.2183,14.576,86.9862,273.126,5.3264e-05,5.6e-06,0.0,0 STARLINK-4135,1 53248U 22086G   23243.50666222  .00000560  00000-0  53264-4 0  9998,2 53248  53.2183  14.5760 0001135  86.9862 273.1260 15.08839758 61741,6917.881,95.438,540.531,538.961,0.0
53248.0,STARLINK-4135,PAYLOAD,2023-09-01 10:24:59,15.08831546,9.39e-05,53.2173,10.4212,37.0794,323.0263,6.3322e-05,7.2e-06,0.0,0 STARLINK-4135,1 53248U 22086G   23244.43402516  .00000720  00000-0  63322-4 0  9999,2 53248  53.2173  10.4212 0000939  37.0794 323.0263 15.08831546 62385,6917.906,95.438,540.421,539.122,0.0
53248.0,STARLINK-4135,PAYLOAD,2023-09-02 11:51:09,15.08830746,0.0001193,53.2191,5.6602,47.5161,312.5932,0.00016997,2.418e-05,0.0,0 STARLINK-4135,1 53248U 22086G   23245.49386554  .00002418  00000-0  16997-3 0  9990,2 53248  53.2191   5.6602 0001193  47.5161 312.5932 15.08830746 62546,6917.909,95.438,540.599,538.948,0.0
53248.0,STARLINK-4135,PAYLOAD,2023-09-02 15:01:45,15.08986636,0.0001696,53.218,5.0615,113.8176,246.2995,0.0013053,0.00020631,0.0,0 STARLINK-4135,1 53248U 22086G   23245.62621954  .00020631  00000-0  13053-2 0  9997,2 53248  53.2180   5.0615 0001696 113.8176 246.2995 15.08986636 62062,6917.432,95.428,540.47,538.124,0.0
53248.0,STARLINK-4135,PAYLOAD,2023-09-03 00:34:15,15.08826094,0.0001201,53.2187,3.2796,89.0834,271.0295,-4.95e-05,-1.075e-05,0.0,0 STARLINK-4135,1 53248U 22086G   23246.02379214 -.00001075  00000-0 -49500-4 0  9992,2 53248  53.2187   3.2796 0001201  89.0834 271.0295 15.08826094 62123,6917.923,95.438,540.619,538.957,0.0
53248.0,STARLINK-4135,PAYLOAD,2023-09-03 10:06:33,15.08829441,6.19e-05,53.2208,1.4896,61.403,298.7024,4.2582e-05,3.9e-06,0.0,0 STARLINK-4135,1 53248U 22086G   23246.42122598  .00000390  00000-0  42582-4 0  9997,2 53248  53.2208   1.4896 0000619  61.4030 298.7024 15.08829441 62688,6917.913,95.438,540.206,539.349,0.0
